[Satellite]
VERSION=1.1
NAME=ONEWEB AF
NICKNAME=ONEWEB AF
TLE1=1 45160U 20008AF  20065.68095468 -.00296189  00000-0 -11674-1 0  9992
TLE2=2 45160  87.4042 154.8711 0020164 188.3409 171.7507 15.26709291  5001
STATUS=0
